[{"OBJECT_NAME":"STARLINK-5547","OBJECT_ID":"2023-013X","EPOCH":"2026-03-09T22:00:01.999584","MEAN_MOTION":15.18674823,"ECCENTRICITY":0.00015552,"INCLINATION":42.9992,"RA_OF_ASC_NODE":298.2701,"ARG_OF_PERICENTER":289.0622,"MEAN_ANOMALY":57.5598,"EPHEMERIS_TYPE":0,"CLASSIFICATION_TYPE":"U","NORAD_CAT_ID":55352,"ELEMENT_SET_NO":999,"REV_AT_EPOCH":578,"BSTAR":0.050453363,"MEAN_MOTION_DOT":0.01159018,"MEAN_MOTION_DDOT":0},{"OBJECT_NAME":"YAOGAN-47","OBJECT_ID":"2025-289A","EPOCH":"2026-03-09T23:10:46.642368","MEAN_MOTION":15.23707396,"ECCENTRICITY":0.00012775,"INCLINATION":97.5108,"RA_OF_ASC_NODE":139.261,"ARG_OF_PERICENTER":63.9903,"MEAN_ANOMALY":296.1465,"EPHEMERIS_TYPE":0,"CLASSIFICATION_TYPE":"U","NORAD_CAT_ID":66988,"ELEMENT_SET_NO":999,"REV_AT_EPOCH":1382,"BSTAR":0.00032587728,"MEAN_MOTION_DOT":7.755e-5,"MEAN_MOTION_DDOT":0}]
